{
  "type": "FeatureCollection",
  "features": [
    {
      "type": "Feature",
      "properties": {
        "norad_id": 63130,
        "name": "COSMOS 2584 (704K)",
        "group": "gnss",
        "lat": 40.37707649025231,
        "lon": 102.62708641658874,
        "alt_km": 19144.2932585221,
        "timestamp": "2025-12-09T14:52:26.406047+00:00",
        "meta_object_name": "COSMOS 2584 (704K)",
        "meta_object_id": "2025-042A",
        "meta_epoch": "2025-12-08T03:39:29.178720",
        "meta_mean_motion": 2.13102925,
        "meta_eccentricity": 0.0007602,
        "meta_inclination": 64.9737,
        "meta_ra_of_asc_node": 79.3022,
        "meta_arg_of_pericenter": 215.9611,
        "meta_mean_anomaly": 144.0025,
        "meta_ephemeris_type": 0,
        "meta_classification_type": "U",
        "meta_norad_cat_id": 63130,
        "meta_element_set_no": 999,
        "meta_rev_at_epoch": 597,
        "meta_bstar": 0,
        "meta_mean_motion_dot": -1.2e-07,
        "meta_mean_motion_ddot": 0,
        "tle_line1": "1 63130U 25042A   25342.15242105 -.00000012  00000+0  00000+0 0  9994",
        "tle_line2": "2 63130  64.9737  79.3022 0007602 215.9611 144.0025  2.13102925  5976"
      },
      "geometry": {
        "type": "Point",
        "coordinates": [
          102.62708641658874,
          40.37707649025231
        ]
      }
    },
    {
      "type": "Feature",
      "properties": {
        "norad_id": 64202,
        "name": "GPS BIII-8  (PRN 21)",
        "group": "gnss",
        "lat": -2.16833553865648,
        "lon": 37.27024569756896,
        "alt_km": 20174.255459938468,
        "timestamp": "2025-12-09T14:52:26.406059+00:00",
        "meta_object_name": "GPS BIII-8  (PRN 21)",
        "meta_object_id": "2025-116A",
        "meta_epoch": "2025-12-09T02:55:25.286016",
        "meta_mean_motion": 2.00558368,
        "meta_eccentricity": 0.00052634,
        "meta_inclination": 55.1032,
        "meta_ra_of_asc_node": 38.7868,
        "meta_arg_of_pericenter": 307.5072,
        "meta_mean_anomaly": 50.3343,
        "meta_ephemeris_type": 0,
        "meta_classification_type": "U",
        "meta_norad_cat_id": 64202,
        "meta_element_set_no": 999,
        "meta_rev_at_epoch": 405,
        "meta_bstar": 0,
        "meta_mean_motion_dot": -8.4e-07,
        "meta_mean_motion_ddot": 0,
        "tle_line1": "1 64202U 25116A   25343.12182044 -.00000084  00000+0  00000+0 0  9999",
        "tle_line2": "2 64202  55.1032  38.7868 0005263 307.5072  50.3343  2.00558368  4056"
      },
      "geometry": {
        "type": "Point",
        "coordinates": [
          37.27024569756896,
          -2.16833553865648
        ]
      }
    },
    {
      "type": "Feature",
      "properties": {
        "norad_id": 65590,
        "name": "COSMOS 2596 (708K)",
        "group": "gnss",
        "lat": 14.313801526683376,
        "lon": 134.65498864315194,
        "alt_km": 19156.498931691127,
        "timestamp": "2025-12-09T14:52:26.406072+00:00",
        "meta_object_name": "COSMOS 2596 (708K)",
        "meta_object_id": "2025-206B",
        "meta_epoch": "2025-12-09T01:32:49.274880",
        "meta_mean_motion": 2.13100277,
        "meta_eccentricity": 0.00139858,
        "meta_inclination": 64.7463,
        "meta_ra_of_asc_node": 321.6013,
        "meta_arg_of_pericenter": 305.3711,
        "meta_mean_anomaly": 152.8075,
        "meta_ephemeris_type": 0,
        "meta_classification_type": "U",
        "meta_norad_cat_id": 65590,
        "meta_element_set_no": 999,
        "meta_rev_at_epoch": 186,
        "meta_bstar": 0,
        "meta_mean_motion_dot": -5.1e-07,
        "meta_mean_motion_ddot": 0,
        "tle_line1": "1 65590U 25206B   25343.06445920 -.00000051  00000+0  00000+0 0  9992",
        "tle_line2": "2 65590  64.7463 321.6013 0013985 305.3711 152.8075  2.13100277  1865"
      },
      "geometry": {
        "type": "Point",
        "coordinates": [
          134.65498864315194,
          14.313801526683376
        ]
      }
    }
  ]
}